LEMUR-2-AMANDA-SVANTE   
1 48269U 21034B   26068.77637527  .00030872  00000+0  11134-2 0  9996
2 48269  97.5829 144.8625 0002703 205.4721 154.6385 15.28469003265849
STARLINK-34180          
1 64081U 25107T   26068.39087050  .00026062  00000+0  95283-3 0  9993
2 64081  42.9963 203.3296 0000261 129.6772 230.4103 15.27594644 46079
